BEIDOU 3 (C01)          
1 36287U 10001A   22072.30478934 -.00000282  00000+0  00000+0 0  9990
2 36287   1.9150  48.4595 0002574   6.1285   6.4250  1.00275716 44553
BEIDOU 5 (C06)          
1 36828U 10036A   22072.28824186 -.00000161  00000+0  00000+0 0  9996
2 36828  54.1922 177.1099 0027605 182.8488  23.4034  1.00274068 42612
BEIDOU 6 (C04)          
1 37210U 10057A   22072.63679831 -.00000115  00000+0  00000+0 0  9998
2 37210   0.9979  55.5140 0003537 148.0118 356.9755  1.00271404 41677
BEIDOU 7 (C07)          
1 37256U 10068A   22072.38417287 -.00000151  00000+0  00000+0 0  9997
2 37256  50.3814 290.7957 0017817 183.4536 303.5958  1.00280094 41180
BEIDOU 8 (C08)          
1 37384U 11013A   22072.65782035 -.00000142  00000+0  00000+0 0  9996
2 37384  60.1580  55.2052 0019300 195.4549 266.0947  1.00281226 40062
BEIDOU 9 (C09)          
1 37763U 11038A   22071.70895184 -.00000095  00000+0  00000+0 0  9996
2 37763  54.4764 179.5964 0090200 225.8939 112.5780  1.00255193 39022
BEIDOU 10 (C10)         
1 37948U 11073A   22072.28084025 -.00000104  00000+0  00000+0 0  9999
2 37948  50.4963 290.4308 0076971 217.9745 219.5386  1.00274509 37799
BEIDOU 11 (C05)         
1 38091U 12008A   22072.66088258  .00000055  00000+0  00000+0 0  9996
2 38091   1.3531  64.6056 0013847 315.1754  87.9484  1.00276233 36870
BEIDOU 12 (C11)         
1 38250U 12018A   22072.28556138 -.00000099  00000+0  00000+0 0  9998
2 38250  56.7188 356.7362 0022958 257.8854 276.3629  1.86234307 67295
BEIDOU 13 (C12)         
1 38251U 12018B   22072.09561243 -.00000100  00000+0  00000+0 0  9994
2 38251  56.6370 356.0729 0013940 264.6303 186.5251  1.86234153 67296
BEIDOU 15 (C14)         
1 38775U 12050B   22072.25198516  .00000017  00000+0  00000+0 0  9994
2 38775  55.3432 114.9233 0014228 318.2800  74.3703  1.86231236 64675
BEIDOU 16 (C02)         
1 38953U 12059A   22072.50865623 -.00000179  00000+0  00000+0 0  9999
2 38953   1.7505  84.5833 0013096 286.0563  67.6209  1.00274567 34298
BEIDOU 17 (C31)         
1 40549U 15019A   22071.86775616 -.00000143  00000+0  00000+0 0  9993
2 40549  52.0494 313.8781 0035443 189.4846  74.4754  1.00262782 25464
BEIDOU 18 (C57)         
1 40748U 15037A   22071.92688748 -.00000101  00000+0  00000+0 0  9994
2 40748  55.8927 355.0032 0005424 356.6796 250.9248  1.86233206 45118
BEIDOU 19 (C58)         
1 40749U 15037B   22072.10599885 -.00000100  00000+0  00000+0 0  9998
2 40749  55.8957 354.9876 0006859 329.3419 173.2643  1.86232099 45113
BEIDOU 20 (C18)         
1 40938U 15053A   22072.29223146 -.00000075  00000+0  00000+0 0  9991
2 40938  51.6485 276.9735 0043819 192.3860 262.6829  1.00268425 23747
BEIDOU IGSO-6 (C13)     
1 41434U 16021A   22072.30241083 -.00000107  00000+0  00000+0 0  9997
2 41434  57.9597  53.8264 0043372 219.8210  99.8863  1.00260809 21866
BEIDOU-2 G7 (C03)       
1 41586U 16037A   22072.57549411 -.00000356  00000+0  00000+0 0  9993
2 41586   1.7634  68.2377 0009104 358.9042  61.5936  1.00265156 21183
BEIDOU-3 M1 (C19)       
1 43001U 17069A   22072.10635179  .00000016  00000+0  00000+0 0  9991
2 43001  55.4962 114.9164 0011208 286.2780 164.9170  1.86231555 29603
BEIDOU-3 M2 (C20)       
1 43002U 17069B   22072.53027795  .00000022  00000+0  00000+0 0  9995
2 43002  55.4965 114.9368 0009206 305.2341 113.3315  1.86231332 29605
BEIDOU-3 M3 (C27)       
1 43107U 18003A   22072.30634098 -.00000100  00000+0  00000+0 0  9993
2 43107  55.3412 355.9516 0005003  38.0455  36.4039  1.86232348 28365
BEIDOU-3 M4 (C28)       
1 43108U 18003B   22072.15124778 -.00000101  00000+0  00000+0 0  9997
2 43108  55.3348 355.9467 0003229 274.4647 100.4312  1.86230810 28364
BEIDOU-3 M5 (C21)       
1 43207U 18018A   22072.03811251  .00000015  00000+0  00000+0 0  9992
2 43207  55.4555 115.0348 0006303 321.7916  38.2405  1.86231590 27747
BEIDOU-3 M6 (C22)       
1 43208U 18018B   22072.10475850  .00000015  00000+0  00000+0 0  9992
2 43208  55.4551 115.0378 0009381 295.7079  64.2720  1.86231636 27746
BEIDOU-3 M7 (C29)       
1 43245U 18029A   22072.20464635 -.00000100  00000+0  00000+0 0  9991
2 43245  55.2593 353.7294 0001543 340.9658 295.6633  1.86232448 26897
BEIDOU-3 M8 (C30)       
1 43246U 18029B   22072.13969602 -.00000100  00000+0  10000-3 0  9993
2 43246  55.2566 353.7620 0005346 351.3913 288.1463  1.86232658 26886
BEIDOU IGSO-7 (C16)     
1 43539U 18057A   22071.96178840 -.00000160  00000+0  00000+0 0  9996
2 43539  55.0748 176.5604 0045936 223.9527 226.8724  1.00287180 13542
BEIDOU-3 M9 (C23)       
1 43581U 18062A   22072.50080862  .00000039  00000+0  00000+0 0  9990
2 43581  54.3071 235.3686 0001858 320.5156  51.8809  1.86231821 24649
BEIDOU-3 M10 (C24)      
1 43582U 18062B   22072.35734789  .00000040  00000+0  00000+0 0  9990
2 43582  54.3069 235.3629 0006446  24.5332 343.3812  1.86232086 24646
BEIDOU-3 M11 (C25)      
1 43602U 18067A   22072.35887519  .00000039  00000+0  00000+0 0  9996
2 43602  54.3879 233.9693 0007663  15.2312  35.2729  1.86231593 24130
BEIDOU-3 M12 (C26)      
1 43603U 18067B   22072.37961322  .00000039  00000+0  00000+0 0  9994
2 43603  54.3847 233.9356 0004695  11.2587 323.5434  1.86231537 24149
BEIDOU-3 M13 (C32)      
1 43622U 18072A   22072.02731074  .00000015  00000+0  00000+0 0  9996
2 43622  55.4223 114.5940 0007855 281.1245 207.0394  1.86231424 23654
BEIDOU-3 M14 (C33)      
1 43623U 18072B   22072.24194058  .00000018  00000+0  00000+0 0  9999
2 43623  55.4235 114.5789 0005574 300.8946  61.4024  1.86231416 23666
BEIDOU-3 M15 (C34)      
1 43647U 18078A   22072.27142836 -.00000100  00000+0  10000-3 0  9999
2 43647  55.1537 353.8945 0007770 358.8398 278.6653  1.86232985 23167
BEIDOU-3 M16 (C35)      
1 43648U 18078B   22072.09378491 -.00000101  00000+0  00000+0 0  9994
2 43648  55.1509 353.9074 0005575   5.0935  61.2773  1.86232144 23188
BEIDOU-3 G1 (C59)       
1 43683U 18085A   22072.55049581 -.00000282  00000+0  00000+0 0  9997
2 43683   0.8388 183.3642 0002024 337.2116 348.7278  1.00276680 12441
BEIDOU-3 M17 (C36)      
1 43706U 18093A   22072.14672749  .00000042  00000+0  00000+0 0  9998
2 43706  54.3896 235.2586 0007316 280.2293  79.6594  1.86232014 22541
BEIDOU-3 M18 (C37)      
1 43707U 18093B   22072.42743038  .00000040  00000+0  00000+0 0  9998
2 43707  54.3887 235.2394 0006614 316.8826 322.3331  1.86232274 22531
BEIDOU-3 IGSO-1 (C38)   
1 44204U 19023A   22072.46472549 -.00000177  00000+0  00000+0 0  9997
2 44204  56.4214  53.9992 0020567 205.7752 197.2292  1.00287088 10752
BEIDOU-2 G8             
1 44231U 19027A   22072.58255398 -.00000250  00000+0  00000+0 0  9997
2 44231   0.6375  70.7675 0005023 145.3308 309.3334  1.00272833 10465
BEIDOU-3 IGSO-2 (C39)   
1 44337U 19035A   22072.65214016 -.00000169  00000+0  00000+0 0  9992
2 44337  55.1132 172.5776 0022553 190.5058 161.7230  1.00282406 10082
BEIDOU-3 M23 (C45)      
1 44542U 19061A   22071.54525004  .00000046  00000+0  00000+0 0  9991
2 44542  54.6156 235.4020 0007956 352.4115   7.5492  1.86231324 16781
BEIDOU-3 M24 (C46)      
1 44543U 19061B   22072.22186488  .00000042  00000+0  00000+0 0  9993
2 44543  54.6132 235.3494 0005149 352.2839  12.4884  1.86231621 16794
BEIDOU-3 IGSO-3         
1 44709U 19073A   22072.51597666 -.00000131  00000+0  00000+0 0  9996
2 44709  57.4177 297.3762 0020333 172.5532   5.9655  1.00285344  8846
BEIDOU-3 M21            
1 44793U 19078A   22072.34537553 -.00000100  00000+0  10000-3 0  9995
2 44793  55.0026 353.9257 0007497   3.7214 277.4060  1.86232090 15659
BEIDOU-3 M22            
1 44794U 19078B   22072.23339723 -.00000100  00000+0  00000+0 0  9998
2 44794  54.9775 353.9225 0005474 358.8206 118.7155  1.86232657 15653
BEIDOU-3 M19            
1 44864U 19090A   22072.34809944  .00000019  00000+0  00000+0 0  9997
2 44864  55.3566 114.7988 0018138 268.4184 120.5302  1.86231742 15249
BEIDOU-3 M20            
1 44865U 19090B   22072.30664037  .00000018  00000+0  00000+0 0  9995
2 44865  55.3593 114.8316 0016321 281.4777 169.5612  1.86231730 15212
BEIDOU-3 G2             
1 45344U 20017A   22072.50804569 -.00000143  00000+0  00000+0 0  9997
2 45344   2.1377 347.3859 0002447  65.5075  21.1365  1.00272534  7656
BEIDOU-3 G3             
1 45807U 20040A   22072.58582597 -.00000357  00000+0  00000+0 0  9996
2 45807   1.6612 300.9289 0007925 348.9585 202.6062  1.00266129  6470
